format  = 'OEF2.0'       ! file format
rectype = 'ML'           ! record type (1L/ML)
refsys  = ECLM J2000     ! default reference system
END_OF_HEADER
2022OB5
! Keplerian elements: a, e, i, long. node, arg. peric., mean anomaly
 KEP   1.0072402220198189E+00  6.0060708217133593E-02   2.0747763176019 304.4962741191928 109.0656992121057  2.3054863322776058E+02
 MJD     60129.078139658 TDT
 MAG  28.912  0.150
! Non-gravitational parameters: model used, number of model parameters, dimension
 LSP   0  0    6
! PERIHELION   9.4674466094052567E-01
! APHELION   1.0677357830991121E+00
! ANODE   8.1774513595706585E-03
! DNODE   1.7288572846097976E-03
! MOID   1.0190222868707256E-03
! PERIOD   3.6923088139269930E+02
! PHA F
! VINFTY     2.0845270200631
! U_PAR 0.4
! ORB_TYPE Apollo
! RMS    7.28720E-09   2.51072E-08   1.82514E-06   4.64996E-06   9.79426E-06   9.24907E-06
 COV   5.310322299607884E-17  1.818330491936022E-16 -9.443164116792074E-15
 COV  -1.196905859553155E-14 -4.567366053601165E-14  5.503687170365638E-14
 COV   6.303737034260408E-16 -3.455343146670116E-14 -4.980628417855893E-14
 COV  -1.424227206275095E-13  1.842419005442636E-13  3.331121907984219E-12
 COV   5.480426671796726E-12  7.396984986483739E-12 -1.276714024412192E-11
 COV   2.162212810622097E-11 -1.293965475620059E-11 -9.227027821425598E-12
 COV   9.592761867662754E-11 -7.924816182151223E-11  8.554522271112802E-11
 COR   1.000000000000000E+00  9.938328261849914E-01 -7.100056977470975E-01
 COR  -3.532241061374162E-01 -6.399315872955991E-01  8.165737593121110E-01
 COR   9.999999999999999E-01 -7.540443252366776E-01 -4.266147630578439E-01
 COR  -5.791731256636327E-01  7.933986923291826E-01  1.000000000000000E+00
 COR   6.457581407911722E-01  4.137972899645584E-01 -7.563111185666661E-01
 COR   1.000000000000000E+00 -2.841198908690063E-01 -2.145431888254571E-01
 COR   1.000000000000000E+00 -8.748215747115380E-01  9.999999999999999E-01
